YAOGAN-43 01D           
1 60461U 24148D   26068.43560480  .00010676  00000+0  37766-3 0  9999
2 60461  35.0010  61.7102 0002556 326.2473  33.8080 15.28369377 87008
STARLINK-35835          
1 66569U 25268N   26068.16239991  .00031901  00000+0  11639-2 0  9992
2 66569  43.0030 349.6479 0001326 299.2565  60.8154 15.27575703 17886
